SAUDISAT 5A             
1 43831U 18102A   26164.89052895  .00005897  00000+0  21810-3 0  9999
2 43831  97.3075 226.5346 0010807 139.2827 220.9222 15.28017180415178
SAUDISAT 5B             
1 43833U 18102C   26164.84445299  .00005607  00000+0  20588-3 0  9990
2 43833  97.3182 229.5531 0011460 141.7668 218.4386 15.28274974415286
GAOFEN-10R              
1 44622U 19066A   26164.84780359  .00001085  00000+0  14012-3 0  9997
2 44622  98.0497 118.4028 0006464 136.6952 223.4770 14.83054252361888
CARTOSAT-3              
1 44804U 19081A   26164.86417764  .00002870  00000+0  13913-3 0  9997
2 44804  97.4310 226.7842 0012779 159.2092 200.9665 15.19256637362960
GAOFEN-12 01            
1 44819U 19082A   26164.90308288  .00000365  00000+0  54311-4 0  9994
2 44819  97.8100 171.3692 0002365  74.4110 285.7363 14.80456203353609
CSG-1                   
1 44873U 19092A   26164.81083603  .00000401  00000+0  56909-4 0  9992
2 44873  97.8888 348.4624 0001470  89.1025 271.0356 14.82150667350972
NEMO-HD                 
1 46277U 20061F   26164.82569093  .00011001  00000+0  23886-3 0  9998
2 46277  97.1927 226.8123 0002406  85.2438 274.9086 15.44532021321468
SENTINEL-6A             
1 46984U 20086A   26164.65014251 -.00000054  00000+0  30902-4 0  9997
2 46984  66.0391 142.3988 0007945 270.2950  89.7155 12.80929977259873
CAS500-1                
1 47932U 21022A   26164.90347748  .00006795  00000+0  31690-3 0  9991
2 47932  97.3912  60.2238 0003991 318.1358  41.9572 15.20175161290266
GAOFEN-12 02            
1 48079U 21026A   26164.84619451  .00000350  00000+0  52820-4 0  9994
2 48079  97.9927 163.0404 0003501 235.9704 124.1176 14.80293886281260
PLEIADES NEO 3          
1 48268U 21034A   26164.74145462  .00000751  00000+0  10205-3 0  9993
2 48268  97.8935 239.5577 0001376  86.2598 273.8772 14.81679117277146
PLEIADES NEO 4          
1 49070U 21073E   26164.84275345  .00001537  00000+0  20188-3 0  9997
2 49070  97.8940 239.6532 0001400  87.5401 272.5972 14.81684812260879
LANDSAT 9               
1 49260U 21088A   26164.76300965  .00000300  00000+0  76597-4 0  9995
2 49260  98.2281 234.9820 0001439  85.2761 274.8602 14.57094781250504
CSG-2                   
1 51444U 22008A   26164.84458115 -.00000040  00000+0  15062-5 0  9998
2 51444  97.8883 348.4910 0001430  84.6472 275.4904 14.82152871236091
GAOFEN-12 03            
1 52912U 22069A   26164.80790124  .00000821  00000+0  11520-3 0  9990
2 52912  97.8293  52.7638 0001934 105.9129 254.2297 14.80030113214115
SWOT                    
1 54754U 22173A   26164.84426490  .00000084  00000+0  58408-4 0  9996
2 54754  77.6108  39.8230 0000248  96.7351 263.3829 14.00169245178681
GAOFEN-12 04            
1 57654U 23123A   26164.89262497  .00000939  00000+0  13033-3 0  9997
2 57654  97.9127  82.9577 0001786  84.4606 275.6810 14.80223181152144
PARS 1                  
1 59065U 24039Q   26164.88340302  .00011610  00000+0  24206-3 0  9995
2 59065  97.4814 145.6990 0011323 121.6311 238.6044 15.45662893128130
RESURS-P 4              
1 59371U 24061A   26164.86697787  .00003068  00000+0  10141-3 0  9991
2 59371  97.2752 112.8236 0001916 130.2668 229.8742 15.32114225123258
LEGION 1                
1 59625U 24081A   26164.79623470  .00003463  00000+0  18031-3 0  9990
2 59625  97.5022 242.6890 0009852  29.2802 330.8981 15.16645616117026
LEGION 2                
1 59626U 24081B   26164.82616898  .00004144  00000+0  21516-3 0  9990
2 59626  97.5023 242.8163 0011080 355.9425   4.1716 15.16625192117034
ALOS-4 (DAICHI-4)       
1 60182U 24123A   26164.84450493  .00001422  00000+0  19725-3 0  9990
2 60182  97.9244 262.0652 0001587  97.9367 262.2024 14.79469990105382
LEGION 3                
1 60452U 24146A   26164.83628126  .00003464  00000+0  19062-3 0  9996
2 60452  45.0025  48.5260 0007269 150.4735 209.6555 15.16016024101515
LEGION 4                
1 60453U 24146B   26164.83934500  .00003427  00000+0  18859-3 0  9995
2 60453  44.9996 140.4200 0014040 290.8695  69.0680 15.16007251100367
SENTINEL-2C             
1 60989U 24157A   26164.81590147  .00000089  00000+0  50484-4 0  9996
2 60989  98.5692 239.6455 0001080  79.7053 280.4251 14.30816912 92500
IONOSFERA-M 1           
1 61735U 24199A   26164.88847263  .00000054  00000+0  43716-4 0  9995
2 61735  98.7177  38.0955 0001859 114.7064 245.4307 14.22753712127233
IONOSFERA-M 2           
1 61736U 24199B   26164.85245009  .00000058  00000+0  45434-4 0  9996
2 61736  98.7176  37.9705 0001187  41.9051 318.2217 14.22756955130353
PRSC-EO1                
1 62725U 25012A   26164.82910442  .00007374  00000+0  36864-3 0  9991
2 62725  97.4232 237.3544 0004295 266.2287  93.8456 15.17730249 77684
BIOMASS                 
1 63772U 25090A   26164.76074838  .00000946  00000+0  17531-3 0  9991
2 63772  98.0742 352.1276 0001353  91.2938 268.8421 14.67538557 60184
GOSAT-GW (IBUKI GW)     
1 64694U 25141A   26164.84925545  .00000576  00000+0  10988-3 0  9999
2 64694  98.0568 102.2210 0001431  82.3266 277.8101 14.67553735 51357
IONOSFERA-M 3           
1 64876U 25155A   26164.86716021  .00000032  00000+0  34299-4 0  9994
2 64876  98.6023 126.8557 0000811 163.1998 196.9206 14.21485959 45934
