OBJECT_NAME,OBJECT_ID,EPOCH,MEAN_MOTION,ECCENTRICITY,INCLINATION,RA_OF_ASC_NODE,ARG_OF_PERICENTER,MEAN_ANOMALY,EPHEMERIS_TYPE,CLASSIFICATION_TYPE,NORAD_CAT_ID,ELEMENT_SET_NO,REV_AT_EPOCH,BSTAR,MEAN_MOTION_DOT,MEAN_MOTION_DDOT
SAUDISAT 5A,2018-102A,2026-06-13T21:22:21.701280,15.28017180,.0010807,97.3075,226.5346,139.2827,220.9222,0,U,43831,999,41517,.2181E-3,.5897E-4,0
SAUDISAT 5B,2018-102C,2026-06-13T20:16:00.738336,15.28274974,.001146,97.3182,229.5531,141.7668,218.4386,0,U,43833,999,41528,.20588E-3,.5607E-4,0
GAOFEN-10R,2019-066A,2026-06-13T20:20:50.230176,14.83054252,.0006464,98.0497,118.4028,136.6952,223.4770,0,U,44622,999,36188,.14012E-3,.1085E-4,0
CARTOSAT-3,2019-081A,2026-06-13T20:44:24.948096,15.19256637,.0012779,97.4310,226.7842,159.2092,200.9665,0,U,44804,999,36296,.13913E-3,.287E-4,0
GAOFEN-12 01,2019-082A,2026-06-13T21:40:26.360832,14.80456203,.0002365,97.8100,171.3692,74.4110,285.7363,0,U,44819,999,35360,.54311E-4,.365E-5,0
CSG-1,2019-092A,2026-06-13T19:27:36.232992,14.82150667,.000147,97.8888,348.4624,89.1025,271.0356,0,U,44873,999,35097,.56909E-4,.401E-5,0
NEMO-HD,2020-061F,2026-06-13T19:48:59.696352,15.44532021,.0002406,97.1927,226.8123,85.2438,274.9086,0,U,46277,999,32146,.23886E-3,.11001E-3,0
SENTINEL-6A,2020-086A,2026-06-13T15:36:12.312864,12.80929977,.0007945,66.0391,142.3988,270.2950,89.7155,0,U,46984,999,25987,.30902E-4,-.54E-6,0
CAS500-1,2021-022A,2026-06-13T21:41:00.454272,15.20175161,.0003991,97.3912,60.2238,318.1358,41.9572,0,U,47932,999,29026,.3169E-3,.6795E-4,0
GAOFEN-12 02,2021-026A,2026-06-13T20:18:31.205664,14.80293886,.0003501,97.9927,163.0404,235.9704,124.1176,0,U,48079,999,28126,.5282E-4,.35E-5,0
PLEIADES NEO 3,2021-034A,2026-06-13T17:47:41.679168,14.81679117,.0001376,97.8935,239.5577,86.2598,273.8772,0,U,48268,999,27714,.10205E-3,.751E-5,0
PLEIADES NEO 4,2021-073E,2026-06-13T20:13:33.898080,14.81684812,.00014,97.8940,239.6532,87.5401,272.5972,0,U,49070,999,26087,.20188E-3,.1537E-4,0
LANDSAT 9,2021-088A,2026-06-13T18:18:44.033760,14.57094781,.0001439,98.2281,234.9820,85.2761,274.8602,0,U,49260,999,25050,.76597E-4,.3E-5,0
CSG-2,2022-008A,2026-06-13T20:16:11.811360,14.82152871,.000143,97.8883,348.4910,84.6472,275.4904,0,U,51444,999,23609,.15062E-5,-.4E-6,0
GAOFEN-12 03,2022-069A,2026-06-13T19:23:22.667136,14.80030113,.0001934,97.8293,52.7638,105.9129,254.2297,0,U,52912,999,21411,.1152E-3,.821E-5,0
SWOT,2022-173A,2026-06-13T20:15:44.487360,14.00169245,.0000248,77.6108,39.8230,96.7351,263.3829,0,U,54754,999,17868,.58408E-4,.84E-6,0
GAOFEN-12 04,2023-123A,2026-06-13T21:25:22.797408,14.80223181,.0001786,97.9127,82.9577,84.4606,275.6810,0,U,57654,999,15214,.13033E-3,.939E-5,0
PARS 1,2024-039Q,2026-06-13T21:12:06.020928,15.45662893,.0011323,97.4814,145.6990,121.6311,238.6044,0,U,59065,999,12813,.24206E-3,.1161E-3,0
RESURS-P 4,2024-061A,2026-06-13T20:48:26.887968,15.32114225,.0001916,97.2752,112.8236,130.2668,229.8742,0,U,59371,999,12325,.10141E-3,.3068E-4,0
LEGION 1,2024-081A,2026-06-13T19:06:34.678080,15.16645616,.0009852,97.5022,242.6890,29.2802,330.8981,0,U,59625,999,11702,.18031E-3,.3463E-4,0
LEGION 2,2024-081B,2026-06-13T19:49:40.999872,15.16625192,.001108,97.5023,242.8163,355.9425,4.1716,0,U,59626,999,11703,.21516E-3,.4144E-4,0
ALOS-4 (DAICHI-4),2024-123A,2026-06-13T20:16:05.225952,14.79469990,.0001587,97.9244,262.0652,97.9367,262.2024,0,U,60182,999,10538,.19725E-3,.1422E-4,0
LEGION 3,2024-146A,2026-06-13T20:04:14.700864,15.16016024,.0007269,45.0025,48.5260,150.4735,209.6555,0,U,60452,999,10151,.19062E-3,.3464E-4,0
LEGION 4,2024-146B,2026-06-13T20:08:39.408000,15.16007251,.001404,44.9996,140.4200,290.8695,69.0680,0,U,60453,999,10036,.18859E-3,.3427E-4,0
SENTINEL-2C,2024-157A,2026-06-13T19:34:53.887008,14.30816912,.000108,98.5692,239.6455,79.7053,280.4251,0,U,60989,999,9250,.50484E-4,.89E-6,0
IONOSFERA-M 1,2024-199A,2026-06-13T21:19:24.035232,14.22753712,.0001859,98.7177,38.0955,114.7064,245.4307,0,U,61735,999,12723,.43716E-4,.54E-6,0
IONOSFERA-M 2,2024-199B,2026-06-13T20:27:31.687776,14.22756955,.0001187,98.7176,37.9705,41.9051,318.2217,0,U,61736,999,13035,.45434E-4,.58E-6,0
PRSC-EO1,2025-012A,2026-06-13T19:53:54.621888,15.17730249,.0004295,97.4232,237.3544,266.2287,93.8456,0,U,62725,999,7768,.36864E-3,.7374E-4,0
BIOMASS,2025-090A,2026-06-13T18:15:28.660032,14.67538557,.0001353,98.0742,352.1276,91.2938,268.8421,0,U,63772,999,6018,.17531E-3,.946E-5,0
GOSAT-GW (IBUKI GW),2025-141A,2026-06-13T20:22:55.670880,14.67553735,.0001431,98.0568,102.2210,82.3266,277.8101,0,U,64694,999,5135,.10988E-3,.576E-5,0
IONOSFERA-M 3,2025-155A,2026-06-13T20:48:42.642144,14.21485959,.0000811,98.6023,126.8557,163.1998,196.9206,0,U,64876,999,4593,.34299E-4,.32E-6,0
